{
  "type": "FeatureCollection",
  "features": [
    {
      "type": "Feature",
      "properties": {
        "norad_id": 34816,
        "name": "COSMOS 2251 DEB",
        "group": "cosmos-2251-debris",
        "lat": 58.52367745950311,
        "lon": 149.0722352427814,
        "alt_km": 1167.7340919088147,
        "timestamp": "2025-12-26T08:37:54.974862+00:00",
        "meta_object_name": "COSMOS 2251 DEB",
        "meta_object_id": "1993-036ABF",
        "meta_epoch": "2025-12-25T01:06:13.254336",
        "meta_mean_motion": 13.58358364,
        "meta_eccentricity": 0.03729236,
        "meta_inclination": 73.8874,
        "meta_ra_of_asc_node": 123.043,
        "meta_arg_of_pericenter": 185.3949,
        "meta_mean_anomaly": 299.3527,
        "meta_ephemeris_type": 0,
        "meta_classification_type": "U",
        "meta_norad_cat_id": 34816,
        "meta_element_set_no": 999,
        "meta_rev_at_epoch": 82950,
        "meta_bstar": 0.0014772062,
        "meta_mean_motion_dot": 1.67e-05,
        "meta_mean_motion_ddot": 0,
        "tle_line1": "1 34816U 93036ABF 25359.04598674  .00001670  00000+0  14772-2 0  9996",
        "tle_line2": "2 34816  73.8874 123.0430 0372923 185.3949 299.3527 13.58358364829506"
      },
      "geometry": {
        "type": "Point",
        "coordinates": [
          149.0722352427814,
          58.52367745950311
        ]
      }
    },
    {
      "type": "Feature",
      "properties": {
        "norad_id": 34818,
        "name": "COSMOS 2251 DEB",
        "group": "cosmos-2251-debris",
        "lat": -69.75523206168737,
        "lon": -139.00834414542823,
        "alt_km": 767.0592777927786,
        "timestamp": "2025-12-26T08:37:54.974872+00:00",
        "meta_object_name": "COSMOS 2251 DEB",
        "meta_object_id": "1993-036ABH",
        "meta_epoch": "2025-12-26T04:41:15.552960",
        "meta_mean_motion": 14.36982494,
        "meta_eccentricity": 0.0024697,
        "meta_inclination": 74.0365,
        "meta_ra_of_asc_node": 272.1994,
        "meta_arg_of_pericenter": 344.861,
        "meta_mean_anomaly": 168.1819,
        "meta_ephemeris_type": 0,
        "meta_classification_type": "U",
        "meta_norad_cat_id": 34818,
        "meta_element_set_no": 999,
        "meta_rev_at_epoch": 87563,
        "meta_bstar": 0.00018428,
        "meta_mean_motion_dot": 5.22e-06,
        "meta_mean_motion_ddot": 0,
        "tle_line1": "1 34818U 93036ABH 25360.19531890  .00000522  00000+0  18428-3 0  9991",
        "tle_line2": "2 34818  74.0365 272.1994 0024697 344.8610 168.1819 14.36982494875632"
      },
      "geometry": {
        "type": "Point",
        "coordinates": [
          -139.00834414542823,
          -69.75523206168737
        ]
      }
    },
    {
      "type": "Feature",
      "properties": {
        "norad_id": 34819,
        "name": "COSMOS 2251 DEB",
        "group": "cosmos-2251-debris",
        "lat": 73.85203561247955,
        "lon": -161.72848842961616,
        "alt_km": 678.2525473667647,
        "timestamp": "2025-12-26T08:37:54.974882+00:00",
        "meta_object_name": "COSMOS 2251 DEB",
        "meta_object_id": "1993-036ABJ",
        "meta_epoch": "2025-12-25T01:52:59.959200",
        "meta_mean_motion": 14.64149943,
        "meta_eccentricity": 0.00152489,
        "meta_inclination": 74.0188,
        "meta_ra_of_asc_node": 118.9364,
        "meta_arg_of_pericenter": 214.0486,
        "meta_mean_anomaly": 323.4712,
        "meta_ephemeris_type": 0,
        "meta_classification_type": "U",
        "meta_norad_cat_id": 34819,
        "meta_element_set_no": 999,
        "meta_rev_at_epoch": 88409,
        "meta_bstar": 0.0016705691,
        "meta_mean_motion_dot": 8.78e-05,
        "meta_mean_motion_ddot": 0,
        "tle_line1": "1 34819U 93036ABJ 25359.07847175  .00008780  00000+0  16706-2 0  9993",
        "tle_line2": "2 34819  74.0188 118.9364 0015248 214.0486 323.4712 14.64149943884098"
      },
      "geometry": {
        "type": "Point",
        "coordinates": [
          -161.72848842961616,
          73.85203561247955
        ]
      }
    },
    {
      "type": "Feature",
      "properties": {
        "norad_id": 34823,
        "name": "COSMOS 2251 DEB",
        "group": "cosmos-2251-debris",
        "lat": 45.368851632941684,
        "lon": 93.34681599660917,
        "alt_km": 740.9650063401041,
        "timestamp": "2025-12-26T08:37:54.974893+00:00",
        "meta_object_name": "COSMOS 2251 DEB",
        "meta_object_id": "1993-036ABN",
        "meta_epoch": "2025-12-24T15:09:15.666048",
        "meta_mean_motion": 14.54999461,
        "meta_eccentricity": 0.01538489,
        "meta_inclination": 74.0415,
        "meta_ra_of_asc_node": 79.7679,
        "meta_arg_of_pericenter": 161.572,
        "meta_mean_anomaly": 199.1106,
        "meta_ephemeris_type": 0,
        "meta_classification_type": "U",
        "meta_norad_cat_id": 34823,
        "meta_element_set_no": 999,
        "meta_rev_at_epoch": 88554,
        "meta_bstar": 0.00054717068,
        "meta_mean_motion_dot": 2.731e-05,
        "meta_mean_motion_ddot": 0,
        "tle_line1": "1 34823U 93036ABN 25358.63143132  .00002731  00000+0  54717-3 0  9996",
        "tle_line2": "2 34823  74.0415  79.7679 0153848 161.5720 199.1106 14.54999461885548"
      },
      "geometry": {
        "type": "Point",
        "coordinates": [
          93.34681599660917,
          45.368851632941684
        ]
      }
    },
    {
      "type": "Feature",
      "properties": {
        "norad_id": 34845,
        "name": "COSMOS 2251 DEB",
        "group": "cosmos-2251-debris",
        "lat": -63.05911803622142,
        "lon": 88.62018690126453,
        "alt_km": 730.0657454482025,
        "timestamp": "2025-12-26T08:37:54.974903+00:00",
        "meta_object_name": "COSMOS 2251 DEB",
        "meta_object_id": "1993-036ABP",
        "meta_epoch": "2025-12-24T15:25:52.110336",
        "meta_mean_motion": 14.4588243,
        "meta_eccentricity": 0.00226897,
        "meta_inclination": 74.0249,
        "meta_ra_of_asc_node": 126.132,
        "meta_arg_of_pericenter": 285.329,
        "meta_mean_anomaly": 74.5361,
        "meta_ephemeris_type": 0,
        "meta_classification_type": "U",
        "meta_norad_cat_id": 34845,
        "meta_element_set_no": 999,
        "meta_rev_at_epoch": 87638,
        "meta_bstar": 0.00029040944,
        "meta_mean_motion_dot": 1.008e-05,
        "meta_mean_motion_ddot": 0,
        "tle_line1": "1 34845U 93036ABP 25358.64296424  .00001008  00000+0  29041-3 0  9992",
        "tle_line2": "2 34845  74.0249 126.1320 0022689 285.3290  74.5361 14.45882430876380"
      },
      "geometry": {
        "type": "Point",
        "coordinates": [
          88.62018690126453,
          -63.05911803622142
        ]
      }
    },
    {
      "type": "Feature",
      "properties": {
        "norad_id": 34846,
        "name": "COSMOS 2251 DEB",
        "group": "cosmos-2251-debris",
        "lat": -57.49043267571063,
        "lon": -150.3971497840805,
        "alt_km": 722.6256593128564,
        "timestamp": "2025-12-26T08:37:54.974913+00:00",
        "meta_object_name": "COSMOS 2251 DEB",
        "meta_object_id": "1993-036ABQ",
        "meta_epoch": "2025-12-25T19:38:30.732000",
        "meta_mean_motion": 14.4728385,
        "meta_eccentricity": 0.0026217,
        "meta_inclination": 74.0297,
        "meta_ra_of_asc_node": 237.3166,
        "meta_arg_of_pericenter": 302.1153,
        "meta_mean_anomaly": 57.7461,
        "meta_ephemeris_type": 0,
        "meta_classification_type": "U",
        "meta_norad_cat_id": 34846,
        "meta_element_set_no": 999,
        "meta_rev_at_epoch": 87593,
        "meta_bstar": 0.00069309,
        "meta_mean_motion_dot": 2.52e-05,
        "meta_mean_motion_ddot": 0,
        "tle_line1": "1 34846U 93036ABQ 25359.81841125  .00002520  00000+0  69309-3 0  9998",
        "tle_line2": "2 34846  74.0297 237.3166 0026217 302.1153  57.7461 14.47283850875931"
      },
      "geometry": {
        "type": "Point",
        "coordinates": [
          -150.3971497840805,
          -57.49043267571063
        ]
      }
    },
    {
      "type": "Feature",
      "properties": {
        "norad_id": 34852,
        "name": "COSMOS 2251 DEB",
        "group": "cosmos-2251-debris",
        "lat": -40.99748220271834,
        "lon": 72.33609489526077,
        "alt_km": 779.6569357323424,
        "timestamp": "2025-12-26T08:37:54.974923+00:00",
        "meta_object_name": "COSMOS 2251 DEB",
        "meta_object_id": "1993-036ABW",
        "meta_epoch": "2025-12-24T08:48:51.292512",
        "meta_mean_motion": 14.37013481,
        "meta_eccentricity": 0.00167051,
        "meta_inclination": 74.0323,
        "meta_ra_of_asc_node": 241.5883,
        "meta_arg_of_pericenter": 342.3569,
        "meta_mean_anomaly": 17.7002,
        "meta_ephemeris_type": 0,
        "meta_classification_type": "U",
        "meta_norad_cat_id": 34852,
        "meta_element_set_no": 999,
        "meta_rev_at_epoch": 87701,
        "meta_bstar": 0.00010991472,
        "meta_mean_motion_dot": 3e-06,
        "meta_mean_motion_ddot": 0,
        "tle_line1": "1 34852U 93036ABW 25358.36726033  .00000300  00000+0  10991-3 0  9991",
        "tle_line2": "2 34852  74.0323 241.5883 0016705 342.3569  17.7002 14.37013481877017"
      },
      "geometry": {
        "type": "Point",
        "coordinates": [
          72.33609489526077,
          -40.99748220271834
        ]
      }
    }
  ]
}